#dP2023  6  9  0  0  0.00000000      96 __u+U ITR00 EXT  IAC
## 2265 432000.00000000   900.00000000 60104 0.0000000000000
+  119   C06C07C08C09C10C11C12C13C14C16C19C20C21C22C23C24C25
+        C26C27C28C29C30C32C33C34C35C36C37C38C39C40C41C42C43
+        C44C45C46E02E03E04E05E07E08E09E10E11E12E13E14E15E18
+        E19E21E24E25E26E27E30E31E33E34E36G01G02G03G04G05G06
+        G07G08G09G10G11G12G13G14G15G16G17G18G19G20G21G22G23
+        G24G25G26G27G28G29G30G31G32J02J03J04R01R02R03R04R05
+        R07R08R09R11R12R13R14R15R16R17R18R19R20R21R22R24R25
++        10 10 10 11  9  9  9 11  7 10  9  8  7  9  7  7  7
++         8  8  8  7  8  7  8  9  8  7  8 11 10  9  7  7  7
++         9  8  9  7  7  6  7  6  6  7  7  6  7  7  7  8  7
++         8  7  7  8  7  7  7  7  7  7  8  7  7  6  7  7  7
++         7  7  7  7  6  8  6  7  7  9  7  7  7  8  7  7  8
++         6  7  6  8  6  7  7  7  6  9  8  8  8  8  9  8  7
++         7  9  8  7  8  7  7  8  7  8  8 10  9  8  7  9  8
%c M  cc GPS ccc cccc cccc cccc cccc ccccc ccccc ccccc ccccc
%c cc cc ccc ccc cccc cccc cccc cccc ccccc ccccc ccccc ccccc
%f  0.0000000  0.000000000  0.00000000000  0.000000000000000
%f  0.0000000  0.000000000  0.00000000000  0.000000000000000
%i    0    0    0    0      0      0      0      0         0
%i    0    0    0    0      0      0      0      0         0
/* IAC                                ULTRA-RAPID PREDICTION
/* S/V CLOCKS ARE ALIGNED TO GNSS TIME                      
/* G:C1WC2W R:C1PC2P E:C1XC5X C:C2IC6I J:C1CC2S             
/* PCV:IGS20_2247 OL/AL:FES2004  NONE     YN ORB:CoN CLK:CoN
*  2023 06 09 19 15  0.00000000
PC06 -15835.857940  25656.063105  29387.919931   -180.617202
PC07 -10001.723469  40853.558948   4312.242774   -147.526894
PC08   1699.863833  26873.021342 -32401.842503    463.932280
PC09  -4553.494748  25404.926458  33672.108036    553.893758
PC10  -4216.110759  42164.110968  -2355.744859    -81.436594
PC11 -24356.999493   1347.845087  13632.647832    665.303066
PC12 -10387.268186 -11946.683351  23011.752281    700.651838
PC13   8456.732489  30557.896711 -27518.226075    292.857414
PC14 -15485.834514  -3636.421254 -22906.653596    385.065737
PC16 -18274.970371  25145.463712  28599.909342     49.012828
PC19  15408.845296  -7550.529620  22026.665552   -920.899475
PC20  13538.411182  12613.916902  20913.743466    513.884039
PC21  -3267.071039 -26789.983460  -7018.477679   -921.897418
PC22   8513.899428 -24412.708431  10459.016536   -448.555575
PC23  -9497.495254  13296.920059  22630.574525   -952.807053
PC24 -23011.133670 -15788.252232   -785.295645     43.630381
PC25 -22734.769704   -442.118290  16182.055871    143.961598
PC26 -11025.185768 -20238.510913 -15769.729374   -132.411329
PC27   1752.881414  16537.145037 -22432.662880    152.745309
PC28 -16044.066105  18384.584436 -13545.053707    113.384433
PC29  25617.732974  -9885.984468  -4987.147426    131.834472
PC30  19058.736017   5349.636549 -19689.506995     -1.043292
PC32   3456.779255  26812.890044   6976.103368   -550.881768
PC33 -15384.468063   7597.101231 -22007.144232   -892.851941
PC34 -19992.187853  -4351.137558  18951.789749    189.491558
PC35  15900.062897 -18905.427128  13001.995388    611.104151
PC36  23026.359338   1617.968138 -15652.187696   -392.583379
PC37   9452.944884  20400.136149  16533.634881   -785.057743
PC38  -6670.399761  23824.175880 -34098.423218     84.021216
PC39 -22144.415099  25598.928165  25070.758402     -3.245120
PC40 -15617.510913  38765.967032   6531.226267    -25.741832
PC41  -8759.128601  24100.514909 -10971.835911   -924.819049
PC42 -13106.849545 -13978.536809 -20231.258390   -656.152543
PC43 -25688.073621   9231.493677   5737.035811     25.421772
PC44  -2172.756279 -16667.575780  22262.427781    133.039150
PC45   8940.486144 -13514.314156 -22714.903931   -108.295255
PC46  23525.485095  14960.183139   -663.147172    -60.307277
PE02   3240.781641 -23069.051063 -18270.913938     43.095766
PE03  13212.402969 -25845.464133  -5754.842160    -24.776903
PE04   2805.944494  21123.271529  20559.889350   -141.155286
PE05  21790.031811 -15475.158495  12727.220325    -59.524713
PE07 -17372.181519  -4104.017480 -23603.215858    -51.443678
PE08  -2454.439879 -21238.031221 -20459.785095    -96.417063
PE09  17162.225479   4205.439902  23752.910717    -44.399090
PE10  21498.665918  12299.741579 -16220.728705   -540.000058
PE11  27928.967760   6986.796236  -6933.125518   2174.370699
PE12  12314.328054  15436.140038 -22068.581019   -573.249765
PE13 -27631.974615  -7338.575596   7647.490102    -19.246783
PE14 -16941.207135  26269.499390  -4987.643810    249.419676
PE15 -11944.984694 -15409.730345  22266.531687    -28.221750
PE18  17224.305347 -17473.049481  -1610.966352    162.899818
PE19 -15071.041719  25264.298662   3301.421256  -2337.272714
PE21 -15454.499520   6462.425723  24403.718735   -534.042457
PE24  19331.697424  15463.737890 -16227.577883   -145.913354
PE25  15616.983743  -6088.134852 -24391.242278   -606.482716
PE26 -26568.059512   5424.384001 -11873.636531    129.280066
PE27 -19435.668060 -14780.192206  16738.441577    -70.608088
PE30 -11490.111089 -27257.460208  -1224.317098   -242.139282
PE31  11918.297165  27086.107438    712.889780   -525.547912
PE33 -10644.838159  14319.057515 -23620.574353   -443.372041
PE34  10464.767178 -14374.976450  23650.439636    -49.944624
PE36  26943.046280  -4909.711520  11238.012064    -68.817827
PG01  15426.299695  13693.339451 -17268.944381    179.438830
PG02  11207.982133  13842.098955 -19327.943780   -587.276627
PG03  12963.304675  22740.750423   4733.219745   -276.107455
PG04   7827.997831  13833.037484  21274.597444     63.887055
PG05  -3314.409843 -24001.564562  10568.041585   -130.472362
PG06  22067.541663  -6034.674974  13634.632382    585.806173
PG07  25506.315056   6927.764067   5033.275120    156.632087
PG08  -1966.973357  21371.983953 -15459.037781   -126.607978
PG09  15591.186058   3859.248384  21086.968297   -139.582559
PG10 -14556.344442   3216.516996 -21824.527158    -40.463276
PG11   8378.399143 -13478.839636  21298.597248   -229.085945
PG12  -9681.728251 -24695.098225   1764.740070   -386.549920
PG13  10884.455305 -21527.209718 -11053.916459    531.756663
PG14  16193.961345     67.431140 -21061.447594     85.232206
PG15  -1494.663323 -21473.559471 -15853.544027     47.345184
PG16  -2314.055659  22574.974076  13112.678047   -493.109590
PG17  20576.508575 -11033.670110 -12335.420134    717.827526
PG18 -26188.301170  -4740.905415   1338.628053   -301.039033
PG19  20365.282772 -15833.286812  -5810.716203    328.368675
PG20   2863.967746 -19480.185149  17944.820324    428.909432
PG21   7387.801667  14628.529763 -20526.623110    153.240136
PG22 -18593.460905  18696.445638  -1891.674760    495.266446
PG23 -17491.666482  -9712.197276 -17542.828589     31.649247
PG24 -11618.790753 -14735.886366 -19303.584748   -219.131592
PG25 -16539.786513 -17106.458134  11757.847679    448.698890
PG26  -9739.085980  13920.703886  20223.240317    239.388192
PG27 -11659.817813  22807.018759  -6399.955477     19.828275
PG28 -23066.911779   6063.027720  11662.510733     82.753413
PG29 -13402.143396  -7070.001035  21768.601213   -602.292543
PG30  26078.405065   -625.157807  -5581.531587   -512.078630
PG31 -13952.708985  11732.179413  19284.806069   -217.824398
PG32 -19738.577118  13745.916736 -10862.201072   -496.500644
PJ02 -26090.753815  23885.386839  28075.714899     -0.423066
PJ03 -33743.146105  19164.465399 -11704.310061      6.105968
PJ04 -20481.457398  31207.519320 -14583.598044     95.225492
PR01   3170.649350  20109.580256  15385.357287     59.107142
PR02  10407.760414   3030.982757  23136.637571    -22.732620
PR03  11859.780618 -15154.829086  16822.987973     79.370308
PR04   6859.777838 -24534.022570   1435.434729    190.543669
PR05  -1808.274112 -20722.856555 -14763.837771    113.905704
PR07 -11715.010518  15822.482446 -16148.950662     57.683910
PR08  -6556.254350  24610.070750  -1077.321872    -71.211545
PR09 -20265.720188 -11266.255115  10559.370583    124.902907
PR11    485.679352  14175.366819  21217.851475    -75.582519
PR12  15270.401060  19129.378442   7186.735353     28.003779
PR13  20194.069939  12867.951009  -8804.177072    -35.921738
PR14  13076.643072  -2258.281177 -21773.764804     24.750365
PR15  -1387.843838 -14941.586498 -20602.760660     88.727448
PR16 -15276.813994 -18986.447434  -7462.819013     15.445554
PR17  23272.825715  -9066.911368   5080.529772    637.540459
PR18  11959.985069 -12161.193882  18994.464899     85.772089
PR19  -3886.558908  -9698.639531  23262.193308   -235.695935
PR20 -21881.832608   -654.500039  13058.171305    -94.373879
PR21 -22821.632655   9402.710945  -6495.505022    -13.983010
PR22 -11321.050109  12101.259251 -19365.957601     79.938495
PR24  22284.964670   -204.627885 -12387.270298    -10.973288
PR25 -23721.974847   8017.000229  -4919.122721     60.038722
EOF
